CCSDS_OMM_VERS = 2.0
CREATION_DATE  = 
ORIGINATOR     = 

OBJECT_NAME    = STARLINK-35687
OBJECT_ID      = 2025-265J
CENTER_NAME    = EARTH
REF_FRAME      = TEME
TIME_SYSTEM    = UTC
MEAN_ELEMENT_THEORY = SGP/SGP4

EPOCH          = 2025-12-10T06:00:02.000160
MEAN_MOTION    = 15.50553467
ECCENTRICITY   = .00016248
INCLINATION    = 43.0001
RA_OF_ASC_NODE = 68.5430
ARG_OF_PERICENTER = 270.0085
MEAN_ANOMALY   = 7.6997

EPHEMERIS_TYPE = 0
CLASSIFICATION_TYPE = U
NORAD_CAT_ID   = 66524
ELEMENT_SET_NO = 999
REV_AT_EPOCH   = 459
BSTAR          = .10439873E-2
MEAN_MOTION_DOT = .6133E-3
MEAN_MOTION_DDOT = 0

CCSDS_OMM_VERS = 2.0
CREATION_DATE  = 
ORIGINATOR     = 

OBJECT_NAME    = STARLINK-35975
OBJECT_ID      = 2025-265K
CENTER_NAME    = EARTH
REF_FRAME      = TEME
TIME_SYSTEM    = UTC
MEAN_ELEMENT_THEORY = SGP/SGP4

EPOCH          = 2025-12-10T06:00:02.000160
MEAN_MOTION    = 15.50600882
ECCENTRICITY   = .00015609
INCLINATION    = 42.9998
RA_OF_ASC_NODE = 68.5378
ARG_OF_PERICENTER = 267.0801
MEAN_ANOMALY   = 12.5457

EPHEMERIS_TYPE = 0
CLASSIFICATION_TYPE = U
NORAD_CAT_ID   = 66525
ELEMENT_SET_NO = 999
REV_AT_EPOCH   = 459
BSTAR          = -.1296579E-2
MEAN_MOTION_DOT = -.75734E-3
MEAN_MOTION_DDOT = 0

CCSDS_OMM_VERS = 2.0
CREATION_DATE  = 
ORIGINATOR     = 

OBJECT_NAME    = STARLINK-35932
OBJECT_ID      = 2025-265L
CENTER_NAME    = EARTH
REF_FRAME      = TEME
TIME_SYSTEM    = UTC
MEAN_ELEMENT_THEORY = SGP/SGP4

EPOCH          = 2025-12-10T06:00:02.000160
MEAN_MOTION    = 15.50609062
ECCENTRICITY   = .0001549
INCLINATION    = 43.0001
RA_OF_ASC_NODE = 68.5335
ARG_OF_PERICENTER = 273.2814
MEAN_ANOMALY   = 8.2547

EPHEMERIS_TYPE = 0
CLASSIFICATION_TYPE = U
NORAD_CAT_ID   = 66526
ELEMENT_SET_NO = 999
REV_AT_EPOCH   = 448
BSTAR          = -.14606563E-2
MEAN_MOTION_DOT = -.85197E-3
MEAN_MOTION_DDOT = 0

CCSDS_OMM_VERS = 2.0
CREATION_DATE  = 
ORIGINATOR     = 

OBJECT_NAME    = STARLINK-35935
OBJECT_ID      = 2025-265M
CENTER_NAME    = EARTH
REF_FRAME      = TEME
TIME_SYSTEM    = UTC
MEAN_ELEMENT_THEORY = SGP/SGP4

EPOCH          = 2025-12-10T06:00:02.000160
MEAN_MOTION    = 15.50595871
ECCENTRICITY   = .00014062
INCLINATION    = 42.9999
RA_OF_ASC_NODE = 68.5294
ARG_OF_PERICENTER = 263.8419
MEAN_ANOMALY   = 19.6129

EPHEMERIS_TYPE = 0
CLASSIFICATION_TYPE = U
NORAD_CAT_ID   = 66527
ELEMENT_SET_NO = 999
REV_AT_EPOCH   = 459
BSTAR          = -.10812772E-2
MEAN_MOTION_DOT = -.63302E-3
MEAN_MOTION_DDOT = 0

CCSDS_OMM_VERS = 2.0
CREATION_DATE  = 
ORIGINATOR     = 

OBJECT_NAME    = STARLINK-35928
OBJECT_ID      = 2025-265N
CENTER_NAME    = EARTH
REF_FRAME      = TEME
TIME_SYSTEM    = UTC
MEAN_ELEMENT_THEORY = SGP/SGP4

EPOCH          = 2025-12-10T06:00:02.000160
MEAN_MOTION    = 15.50581691
ECCENTRICITY   = .00015556
INCLINATION    = 43.0000
RA_OF_ASC_NODE = 68.5240
ARG_OF_PERICENTER = 270.0258
MEAN_ANOMALY   = 15.3506

EPHEMERIS_TYPE = 0
CLASSIFICATION_TYPE = U
NORAD_CAT_ID   = 66528
ELEMENT_SET_NO = 999
REV_AT_EPOCH   = 459
BSTAR          = -.71966408E-3
MEAN_MOTION_DOT = -.42337E-3
MEAN_MOTION_DDOT = 0

CCSDS_OMM_VERS = 2.0
CREATION_DATE  = 
ORIGINATOR     = 

OBJECT_NAME    = STARLINK-35933
OBJECT_ID      = 2025-265P
CENTER_NAME    = EARTH
REF_FRAME      = TEME
TIME_SYSTEM    = UTC
MEAN_ELEMENT_THEORY = SGP/SGP4

EPOCH          = 2025-12-10T06:00:02.000160
MEAN_MOTION    = 15.50544342
ECCENTRICITY   = .00015617
INCLINATION    = 42.9998
RA_OF_ASC_NODE = 68.5185
ARG_OF_PERICENTER = 262.8858
MEAN_ANOMALY   = 24.4175

EPHEMERIS_TYPE = 0
CLASSIFICATION_TYPE = U
NORAD_CAT_ID   = 66529
ELEMENT_SET_NO = 999
REV_AT_EPOCH   = 459
BSTAR          = .95784993E-3
MEAN_MOTION_DOT = .56186E-3
MEAN_MOTION_DDOT = 0

CCSDS_OMM_VERS = 2.0
CREATION_DATE  = 
ORIGINATOR     = 

OBJECT_NAME    = STARLINK-35961
OBJECT_ID      = 2025-265Q
CENTER_NAME    = EARTH
REF_FRAME      = TEME
TIME_SYSTEM    = UTC
MEAN_ELEMENT_THEORY = SGP/SGP4

EPOCH          = 2025-12-10T06:00:02.000160
MEAN_MOTION    = 15.50603492
ECCENTRICITY   = .00015281
INCLINATION    = 43.0002
RA_OF_ASC_NODE = 68.5139
ARG_OF_PERICENTER = 271.0929
MEAN_ANOMALY   = 18.1158

EPHEMERIS_TYPE = 0
CLASSIFICATION_TYPE = U
NORAD_CAT_ID   = 66530
ELEMENT_SET_NO = 999
REV_AT_EPOCH   = 459
BSTAR          = -.13386542E-2
MEAN_MOTION_DOT = -.78163E-3
MEAN_MOTION_DDOT = 0

CCSDS_OMM_VERS = 2.0
CREATION_DATE  = 
ORIGINATOR     = 

OBJECT_NAME    = STARLINK-35960
OBJECT_ID      = 2025-265R
CENTER_NAME    = EARTH
REF_FRAME      = TEME
TIME_SYSTEM    = UTC
MEAN_ELEMENT_THEORY = SGP/SGP4

EPOCH          = 2025-12-10T06:00:02.000160
MEAN_MOTION    = 15.50600352
ECCENTRICITY   = .00014085
INCLINATION    = 43.0000
RA_OF_ASC_NODE = 68.5089
ARG_OF_PERICENTER = 265.0452
MEAN_ANOMALY   = 26.0806

EPHEMERIS_TYPE = 0
CLASSIFICATION_TYPE = U
NORAD_CAT_ID   = 66531
ELEMENT_SET_NO = 999
REV_AT_EPOCH   = 459
BSTAR          = -.12309755E-2
MEAN_MOTION_DOT = -.71951E-3
MEAN_MOTION_DDOT = 0

CCSDS_OMM_VERS = 2.0
CREATION_DATE  = 
ORIGINATOR     = 

OBJECT_NAME    = STARLINK-35914
OBJECT_ID      = 2025-265S
CENTER_NAME    = EARTH
REF_FRAME      = TEME
TIME_SYSTEM    = UTC
MEAN_ELEMENT_THEORY = SGP/SGP4

EPOCH          = 2025-12-10T06:00:02.000160
MEAN_MOTION    = 15.50589195
ECCENTRICITY   = .00016211
INCLINATION    = 42.9998
RA_OF_ASC_NODE = 68.5041
ARG_OF_PERICENTER = 269.4479
MEAN_ANOMALY   = 23.5961

EPHEMERIS_TYPE = 0
CLASSIFICATION_TYPE = U
NORAD_CAT_ID   = 66532
ELEMENT_SET_NO = 999
REV_AT_EPOCH   = 459
BSTAR          = -.88862819E-3
MEAN_MOTION_DOT = -.52147E-3
MEAN_MOTION_DDOT = 0

CCSDS_OMM_VERS = 2.0
CREATION_DATE  = 
ORIGINATOR     = 

OBJECT_NAME    = STARLINK-35707
OBJECT_ID      = 2025-265T
CENTER_NAME    = EARTH
REF_FRAME      = TEME
TIME_SYSTEM    = UTC
MEAN_ELEMENT_THEORY = SGP/SGP4

EPOCH          = 2025-12-10T06:00:02.000160
MEAN_MOTION    = 15.50605944
ECCENTRICITY   = .0001646
INCLINATION    = 42.9998
RA_OF_ASC_NODE = 68.4993
ARG_OF_PERICENTER = 263.3561
MEAN_ANOMALY   = 31.6027

EPHEMERIS_TYPE = 0
CLASSIFICATION_TYPE = U
NORAD_CAT_ID   = 66533
ELEMENT_SET_NO = 999
REV_AT_EPOCH   = 459
BSTAR          = -.14045028E-2
MEAN_MOTION_DOT = -.8196E-3
MEAN_MOTION_DDOT = 0

CCSDS_OMM_VERS = 2.0
CREATION_DATE  = 
ORIGINATOR     = 

OBJECT_NAME    = STARLINK-35976
OBJECT_ID      = 2025-265U
CENTER_NAME    = EARTH
REF_FRAME      = TEME
TIME_SYSTEM    = UTC
MEAN_ELEMENT_THEORY = SGP/SGP4

EPOCH          = 2025-12-10T06:00:02.000160
MEAN_MOTION    = 15.50585831
ECCENTRICITY   = .00016315
INCLINATION    = 43.0000
RA_OF_ASC_NODE = 68.4954
ARG_OF_PERICENTER = 265.8155
MEAN_ANOMALY   = 31.0658

EPHEMERIS_TYPE = 0
CLASSIFICATION_TYPE = U
NORAD_CAT_ID   = 66534
ELEMENT_SET_NO = 999
REV_AT_EPOCH   = 459
BSTAR          = -.82973148E-3
MEAN_MOTION_DOT = -.48728E-3
MEAN_MOTION_DDOT = 0

CCSDS_OMM_VERS = 2.0
CREATION_DATE  = 
ORIGINATOR     = 

OBJECT_NAME    = STARLINK-35514
OBJECT_ID      = 2025-265V
CENTER_NAME    = EARTH
REF_FRAME      = TEME
TIME_SYSTEM    = UTC
MEAN_ELEMENT_THEORY = SGP/SGP4

EPOCH          = 2025-12-10T06:00:02.000160
MEAN_MOTION    = 15.50596779
ECCENTRICITY   = .00014672
INCLINATION    = 42.9999
RA_OF_ASC_NODE = 68.4903
ARG_OF_PERICENTER = 265.0021
MEAN_ANOMALY   = 33.7951

EPHEMERIS_TYPE = 0
CLASSIFICATION_TYPE = U
NORAD_CAT_ID   = 66535
ELEMENT_SET_NO = 999
REV_AT_EPOCH   = 459
BSTAR          = -.11543494E-2
MEAN_MOTION_DOT = -.67523E-3
MEAN_MOTION_DDOT = 0

