STARLINK-35687          
1 66524U 25265J   25344.25002315  .00061330  00000+0  10440-2 0  9992
2 66524  43.0001  68.5430 0001624 270.0085   7.6997 15.50553467  4591
STARLINK-35975          
1 66525U 25265K   25344.25002315 -.00075734  00000+0 -12966-2 0  9993
2 66525  42.9998  68.5378 0001560 267.0801  12.5457 15.50600882  4597
STARLINK-35932          
1 66526U 25265L   25344.25002315 -.00085197  00000+0 -14607-2 0  9992
2 66526  43.0001  68.5335 0001549 273.2814   8.2547 15.50609062  4487
STARLINK-35935          
1 66527U 25265M   25344.25002315 -.00063302  00000+0 -10813-2 0  9992
2 66527  42.9999  68.5294 0001406 263.8419  19.6129 15.50595871  4590
STARLINK-35928          
1 66528U 25265N   25344.25002315 -.00042337  00000+0 -71966-3 0  9995
2 66528  43.0000  68.5240 0001555 270.0258  15.3506 15.50581691  4590
STARLINK-35933          
1 66529U 25265P   25344.25002315  .00056186  00000+0  95785-3 0  9996
2 66529  42.9998  68.5185 0001561 262.8858  24.4175 15.50544342  4590
STARLINK-35961          
1 66530U 25265Q   25344.25002315 -.00078163  00000+0 -13387-2 0  9996
2 66530  43.0002  68.5139 0001528 271.0929  18.1158 15.50603492  4596
STARLINK-35960          
1 66531U 25265R   25344.25002315 -.00071951  00000+0 -12310-2 0  9990
2 66531  43.0000  68.5089 0001408 265.0452  26.0806 15.50600352  4590
STARLINK-35914          
1 66532U 25265S   25344.25002315 -.00052147  00000+0 -88863-3 0  9994
2 66532  42.9998  68.5041 0001621 269.4479  23.5961 15.50589195  4592
STARLINK-35707          
1 66533U 25265T   25344.25002315 -.00081960  00000+0 -14045-2 0  9990
2 66533  42.9998  68.4993 0001646 263.3561  31.6027 15.50605944  4594
STARLINK-35976          
1 66534U 25265U   25344.25002315 -.00048728  00000+0 -82973-3 0  9992
2 66534  43.0000  68.4954 0001631 265.8155  31.0658 15.50585831  4594
STARLINK-35514          
1 66535U 25265V   25344.25002315 -.00067523  00000+0 -11543-2 0  9991
2 66535  42.9999  68.4903 0001467 265.0021  33.7951 15.50596779  4593
